NORAD_CAT_ID,OBJECT_NAME,OBJECT_TYPE,EPOCH,MEAN_MOTION,ECCENTRICITY,INCLINATION,RA_OF_ASC_NODE,ARG_OF_PERICENTER,MEAN_ANOMALY,BSTAR,MEAN_MOTION_DOT,MEAN_MOTION_DDOT,TLE_LINE0,TLE_LINE1,TLE_LINE2,SEMIMAJOR_AXIS,PERIOD,APOGEE,PERIGEE,DECAYED
51731.0,STARLINK-3514,PAYLOAD,2022-11-22 16:36:22,15.08840169,0.0002578,53.2175,319.5948,33.9265,326.1891,0.00014441,2.011e-05,0.0,0 STARLINK-3514,1 51731U 22016T   22326.69193280  .00002011  00000-0  14441-3 0  9992,2 51731  53.2175 319.5948 0002578  33.9265 326.1891 15.08840169 43066,6917.88,95.438,541.528,537.961,0.0
51731.0,STARLINK-3514,PAYLOAD,2022-11-23 06:54:52,15.0882602,0.0002604,53.2177,316.9182,34.0121,326.1038,0.00020532,2.98e-05,0.0,0 STARLINK-3514,1 51731U 22016T   22327.28810190  .00002980  00000-0  20532-3 0  9997,2 51731  53.2177 316.9182 0002604  34.0121 326.1038 15.08826020 43155,6917.9230000000025,95.438,541.59,537.987,0.0
51731.0,STARLINK-3514,PAYLOAD,2022-11-23 16:27:11,15.08826158,0.0002598,53.2177,315.1339,34.9456,325.1706,1.1702e-05,-1.02e-06,0.0,0 STARLINK-3514,1 51731U 22016T   22327.68554823 -.00000102  00000-0  11702-4 0  9994,2 51731  53.2177 315.1339 0002598  34.9456 325.1706 15.08826158 42109,6917.9230000000025,95.438,541.585,537.99,0.0
51731.0,STARLINK-3514,PAYLOAD,2022-11-24 05:10:15,15.088399,0.0002497,53.2176,312.7558,35.8539,324.2621,1.6399e-05,-2.7e-07,0.0,0 STARLINK-3514,1 51731U 22016T   22328.21546105 -.00000027  00000-0  16399-4 0  9991,2 51731  53.2176 312.7558 0002497  35.8539 324.2621 15.08839900 43290,6917.880999999999,95.438,541.4730000000002,538.018,0.0
51731.0,STARLINK-3514,PAYLOAD,2022-11-24 08:21:02,15.0884116,0.0002511,53.2179,312.1599,30.7397,329.3742,2.2023e-05,6.2e-07,0.0,0 STARLINK-3514,1 51731U 22016T   22328.34793991  .00000062  00000-0  22023-4 0  9991,2 51731  53.2179 312.1599 0002511  30.7397 329.3742 15.08841160 42206,6917.877,95.437,541.479,538.005,0.0
51731.0,STARLINK-3514,PAYLOAD,2022-11-24 16:17:57,15.08846788,0.0002598,53.2177,310.6738,35.1917,324.9246,4.3317e-05,4.01e-06,0.0,0 STARLINK-3514,1 51731U 22016T   22328.67913535  .00000401  00000-0  43317-4 0  9991,2 51731  53.2177 310.6738 0002598  35.1917 324.9246 15.08846788 42250,6917.86,95.437,541.5219999999998,537.927,0.0
51731.0,STARLINK-3514,PAYLOAD,2022-11-25 05:01:01,15.088694699999998,0.0003207,53.2184,308.2942,42.7928,317.3313,-0.0002217,-3.819e-05,0.0,0 STARLINK-3514,1 51731U 22016T   22329.20904471 -.00003819  00000-0 -22170-3 0  9991,2 51731  53.2184 308.2942 0003207  42.7928 317.3313 15.08869470 43448,6917.79,95.436,541.874,537.437,0.0
51731.0,STARLINK-3514,PAYLOAD,2022-11-25 08:11:48,15.08841669,0.0002633,53.2173,307.7024,29.2175,330.8964,4.2433e-05,3.87e-06,0.0,0 STARLINK-3514,1 51731U 22016T   22329.34153687  .00000387  00000-0  42433-4 0  9991,2 51731  53.2173 307.7024 0002633  29.2175 330.8964 15.08841669 43461,6917.875,95.437,541.562,537.919,0.0
51731.0,STARLINK-3514,PAYLOAD,2022-11-26 04:51:48,15.08850597,0.00025,53.218,303.8346,32.9497,327.1651,0.00018088,2.592e-05,0.0,0 STARLINK-3514,1 51731U 22016T   22330.20264744  .00002592  00000-0  18088-3 0  9993,2 51731  53.2180 303.8346 0002500  32.9497 327.1651 15.08850597 43590,6917.848000000001,95.437,541.442,537.984,0.0
51731.0,STARLINK-3514,PAYLOAD,2022-11-26 08:02:35,15.08848509,0.0002117,53.2197,303.242,49.6491,310.4686,6.954e-05,8.19e-06,0.0,0 STARLINK-3514,1 51731U 22016T   22330.33513137  .00000819  00000-0  69540-4 0  9990,2 51731  53.2197 303.2420 0002117  49.6491 310.4686 15.08848509 42501,6917.854,95.437,541.184,538.255,0.0
51731.0,STARLINK-3514,PAYLOAD,2022-11-26 15:59:31,15.08845084,0.0002667,53.2177,301.7531,36.7519,323.3655,5.0215e-05,5.11e-06,0.0,0 STARLINK-3514,1 51731U 22016T   22330.66633247  .00000511  00000-0  50215-4 0  9999,2 51731  53.2177 301.7531 0002667  36.7519 323.3655 15.08845084 43665,6917.865,95.437,541.575,537.885,0.0
51731.0,STARLINK-3514,PAYLOAD,2022-11-27 07:53:23,15.0883191,0.0002498,53.2181,298.779,35.7402,324.3757,-5.1441e-06,-3.700000000000001e-06,0.0,0 STARLINK-3514,1 51731U 22016T   22331.32874037 -.00000370  00000-0 -51441-5 0  9995,2 51731  53.2181 298.7790 0002498  35.7402 324.3757 15.08831910 43762,6917.905,95.438,541.498,538.0419999999998,0.0
51731.0,STARLINK-3514,PAYLOAD,2022-11-28 04:33:23,15.08847881,0.0002595,53.2174,294.914,34.4305,325.6855,-1.3755999999999992e-05,-5.07e-06,0.0,0 STARLINK-3514,1 51731U 22016T   22332.18985217 -.00000507  00000-0 -13756-4 0  9991,2 51731  53.2174 294.9140 0002595  34.4305 325.6855 15.08847881 43898,6917.856,95.437,541.516,537.9259999999998,0.0
51731.0,STARLINK-3514,PAYLOAD,2022-11-28 14:05:41,15.08844166,0.000255,53.2165,293.1293,32.9263,327.1888,7.5427e-05,9.12e-06,0.0,0 STARLINK-3514,1 51731U 22016T   22332.58729135  .00000912  00000-0  75427-4 0  9991,2 51731  53.2165 293.1293 0002550  32.9263 327.1888 15.08844166 42845,6917.868,95.437,541.497,537.969,0.0
51731.0,STARLINK-3514,PAYLOAD,2022-11-29 07:34:56,15.08847514,0.000267,53.2165,289.8584,38.241,321.8771,0.00014748,2.060000000000001e-05,0.0,0 STARLINK-3514,1 51731U 22016T   22333.31593153  .00002060  00000-0  14748-3 0  9996,2 51731  53.2165 289.8584 0002670  38.2410 321.8771 15.08847514 44064,6917.857,95.437,541.569,537.875,0.0
51731.0,STARLINK-3514,PAYLOAD,2022-11-30 01:04:11,15.08834387,0.0002536,53.2169,286.5868,41.4816,318.6368,-4.4381e-05,-9.95e-06,0.0,0 STARLINK-3514,1 51731U 22016T   22334.04457983 -.00000995  00000-0 -44381-4 0  9991,2 51731  53.2169 286.5868 0002536  41.4816 318.6368 15.08834387 44176,6917.898,95.438,541.5169999999998,538.008,0.0
51731.0,STARLINK-3514,PAYLOAD,2022-11-30 05:50:21,15.08831212,0.0002694,53.2178,285.6944,36.5323,323.5853,3.5108000000000004e-07,-2.83e-06,0.0,0 STARLINK-3514,1 51731U 22016T   22334.24330710 -.00000283  00000-0  35108-6 0  9999,2 51731  53.2178 285.6944 0002694  36.5323 323.5853 15.08831212 43092,6917.906999999997,95.438,541.636,537.909,0.0
51731.0,STARLINK-3514,PAYLOAD,2022-12-01 13:38:04,15.08840889,0.0002648,53.2173,279.7474,34.1056,326.0106,1.8712e-05,9e-08,0.0,0 STARLINK-3514,1 51731U 22016T   22335.56810443  .00000009  00000-0  18712-4 0  9996,2 51731  53.2173 279.7474 0002648  34.1056 326.0106 15.08840889 43296,6917.878000000002,95.437,541.575,537.911,0.0
51731.0,STARLINK-3514,PAYLOAD,2022-12-02 02:21:09,15.0883279,0.0002605,53.2171,277.3692,32.9234,327.192,9.0582e-05,1.153e-05,0.0,0 STARLINK-3514,1 51731U 22016T   22336.09803060  .00001153  00000-0  90582-4 0  9998,2 51731  53.2171 277.3692 0002605  32.9234 327.1920 15.08832790 44487,6917.901999999999,95.438,541.57,537.965,0.0
51731.0,STARLINK-3514,PAYLOAD,2022-12-02 19:50:23,15.08847227,0.000267,53.2173,274.0977,34.3511,325.7654,0.00019781,2.862e-05,0.0,0 STARLINK-3514,1 51731U 22016T   22336.82665978  .00002862  00000-0  19781-3 0  9992,2 51731  53.2173 274.0977 0002670  34.3511 325.7654 15.08847227 44596,6917.858,95.437,541.57,537.876,0.0
51731.0,STARLINK-3514,PAYLOAD,2022-12-03 05:22:42,15.08844084,0.0002644,53.2162,272.314,33.3005,326.8153,0.00017295,2.466e-05,0.0,0 STARLINK-3514,1 51731U 22016T   22337.22410451  .00002466  00000-0  17295-3 0  9999,2 51731  53.2162 272.3140 0002644  33.3005 326.8153 15.08844084 44656,6917.868,95.437,541.562,537.904,0.0
51731.0,STARLINK-3514,PAYLOAD,2022-12-03 13:19:38,15.08832754,0.0002687,53.216,270.827,34.054,326.0624,-2.532e-05,-6.91e-06,0.0,0 STARLINK-3514,1 51731U 22016T   22337.55531077 -.00000691  00000-0 -25320-4 0  9992,2 51731  53.2160 270.8270 0002687  34.0540 326.0624 15.08832754 44702,6917.903,95.438,541.626,537.909,0.0
51731.0,STARLINK-3514,PAYLOAD,2022-12-04 02:02:43,15.08846527,0.0002641,53.2162,268.4478,33.5985,326.5174,0.00018369,2.637e-05,0.0,0 STARLINK-3514,1 51731U 22016T   22338.08522531  .00002637  00000-0  18369-3 0  9990,2 51731  53.2162 268.4478 0002641  33.5985 326.5174 15.08846527 44780,6917.86,95.437,541.552,537.898,0.0
51731.0,STARLINK-3514,PAYLOAD,2022-12-04 05:13:29,15.08849131,0.0002688,53.2159,267.8531,33.5624,326.5538,0.00021539,3.142e-05,0.0,0 STARLINK-3514,1 51731U 22016T   22338.21770357  .00003142  00000-0  21539-3 0  9991,2 51731  53.2159 267.8531 0002688  33.5624 326.5538 15.08849131 43697,6917.852,95.437,541.577,537.8580000000002,0.0
51731.0,STARLINK-3514,PAYLOAD,2022-12-04 22:42:44,15.08844613,0.0002643,53.2154,264.58,38.6276,321.4905,0.00017765,2.54e-05,0.0,0 STARLINK-3514,1 51731U 22016T   22338.94634490  .00002540  00000-0  17765-3 0  9995,2 51731  53.2154 264.5800 0002643  38.6276 321.4905 15.08844613 44913,6917.866,95.437,541.56,537.903,0.0
51731.0,STARLINK-3514,PAYLOAD,2022-12-05 05:04:16,15.08853742,0.0002746,53.2154,263.3922,33.3786,326.7378,0.00030776,4.615e-05,0.0,0 STARLINK-3514,1 51731U 22016T   22339.21130116  .00004615  00000-0  30776-3 0  9994,2 51731  53.2154 263.3922 0002746  33.3786 326.7378 15.08853742 43843,6917.8380000000025,95.437,541.6030000000002,537.804,0.0
51731.0,STARLINK-3514,PAYLOAD,2022-12-05 19:22:44,15.08854191,0.0002563999999999,53.2161,260.7143,40.0989,320.0192,0.00031179,4.679e-05,0.0,0 STARLINK-3514,1 51731U 22016T   22339.80745829  .00004679  00000-0  31179-3 0  9990,2 51731  53.2161 260.7143 0002564  40.0989 320.0192 15.08854191 43935,6917.837,95.437,541.476,537.928,0.0
51731.0,STARLINK-3514,PAYLOAD,2022-12-06 03:19:39,15.08849649,0.0002607,53.2166,259.2288,33.1651,326.9504,0.00015177,2.129e-05,0.0,0 STARLINK-3514,1 51731U 22016T   22340.13865666  .00002129  00000-0  15177-3 0  9998,2 51731  53.2166 259.2288 0002607  33.1651 326.9504 15.08849649 45093,6917.851,95.437,541.519,537.9119999999998,0.0
51731.0,STARLINK-3514,PAYLOAD,2022-12-06 04:55:03,15.08847703,0.0002652,53.2163,258.9309,32.667,327.4486,7.968e-05,9.8e-06,0.0,0 STARLINK-3514,1 51731U 22016T   22340.20489673  .00000980  00000-0  79680-4 0  9999,2 51731  53.2163 258.9309 0002652  32.6670 327.4486 15.08847703 43996,6917.857,95.437,541.556,537.887,0.0
